GOES 1 (SMS-C) [-]      
1 08366U 75100A   19051.36912698 -.00000023  00000-0  00000+0 0  9991
2 08366  10.9563 311.0390 0005760 335.8438 236.3176  1.00308068158398
GOES 2 [-]              
1 10061U 77048A   19051.45923044 -.00000153  00000-0  00000+0 0  9990
2 10061  12.3167 320.5938 0018676 344.8654 292.3657  0.99395486 96936
GOES 3 [-]              
1 10953U 78062A   19051.37845823 -.00000242  00000-0  00000+0 0  9995
2 10953  12.5244 324.3836 0005659 354.6281 270.1645  0.99360727102024
GOES 4 [-]              
1 11964U 80074A   19050.40487987  .00000058  00000-0  00000+0 0  9994
2 11964  13.3663 328.1303 0036271  28.5840 164.3718  0.99228670101084
GOES 5 [-]              
1 12472U 81049A   19051.51998479  .00000031  00000-0  00000+0 0  9999
2 12472  13.7586 338.5572 0005390 319.6372 267.5957  1.00319166 96158
GOES 6 [-]              
1 14050U 83041A   19051.41147966  .00000000  00000-0  00000+0 0  9999
2 14050  14.0903 343.5278 0003338 342.0115 206.7717  1.00311303189240
GOES 7 [-]              
1 17561U 87022A   19051.88226118 -.00000047  00000-0  00000-0 0  9993
2 17561  15.0293 359.5469 0008686 336.2305 207.4925  0.99888897100256
GOES 8 [-]              
1 23051U 94022A   19051.62250341 -.00000028  00000-0  00000-0 0  9998
2 23051  12.0773  33.4374 0009609 289.1038 264.2360  0.98905124 97683
GOES 9 [-]              
1 23581U 95025A   19051.62311406 -.00000026  00000-0  00000-0 0  9998
2 23581  11.5682  33.1764 0003236 329.9433 227.9459  0.98799863 86343
GOES 10 [-]             
1 24786U 97019A   19051.41994156 -.00000095  00000-0  00000+0 0  9992
2 24786  10.0431  38.4319 0026710 184.6765 354.4808  0.99121455 79553
GOES 11 [-]             
1 26352U 00022A   19051.89388314 -.00000292  00000-0  00000-0 0  9996
2 26352   6.1870  68.6698 0005536 223.8641 313.1692  0.99044384 25991
GOES 12 [-]             
1 26871U 01031A   19051.79399365 -.00000225  00000-0  00000-0 0  9996
2 26871   7.4037  55.8043 0011111 256.9522 115.8724  0.99140583 64263
GOES 13 [B]             
1 29155U 06018A   19051.85521806 -.00000305  00000-0  00000-0 0  9997
2 29155   0.3964 100.8322 0008890 314.5171 342.5682  1.00258902 16564
GOES 14 [S]             
1 35491U 09033A   19051.63122701 -.00000115  00000-0  00000-0 0  9993
2 35491   0.0175 119.4649 0009191 124.9654  28.7561  1.00270443 35314
GOES 15 [+]             
1 36411U 10008A   19051.62642903  .00000034  00000-0  00000-0 0  9999
2 36411   0.0517 282.5952 0002907 347.3987 337.5065  1.00266359 32862
GOES 16 [+]             
1 41866U 16071A   19052.24110573 -.00000271  00000-0  00000+0 0  9990
2 41866   0.0465 279.3835 0000788  87.3668 155.6857  1.00271253  8309
GOES-S [+]              
1 43226U 18022A   19051.69607068  .00000075  00000-0  00000-0 0  9990
2 43226   0.0243  69.5300 0003714 301.5107 252.6500  1.00273361  3605
